start=new Date('2022-09-26T00:00:00.000Z').valueOf();
sats=[{"EPHEMERIS_TYPE":"0","PERIAPSIS":"538.238","REF_FRAME":"TEME","NORAD_CAT_ID":"52997","FILE":"3583828","LAUNCH_DATE":"2022-07-07","OBJECT_ID":"2022-076M","ARG_OF_PERICENTER":"32.3113","CENTER_NAME":"EARTH","SITE":"AFETR","PERIOD":"95.437","INCLINATION":"53.2168","MEAN_MOTION_DOT":"-0.00064117","TIME_SYSTEM":"UTC","RCS_SIZE":"LARGE","GP_ID":"213509320","TLE_LINE2":"2 52997  53.2168 353.9509 0002120  32.3113 229.7884 15.08853229  1308","MEAN_MOTION_DDOT":"0.0000000000000","MEAN_ANOMALY":"229.7884","OBJECT_TYPE":"PAYLOAD","OBJECT_NAME":"STARLINK-4301","REV_AT_EPOCH":"130","MEAN_ELEMENT_THEORY":"SGP4","ELEMENT_SET_NO":"999","MEAN_MOTION":"15.08853229","ECCENTRICITY":"0.00021200","EPOCH":"2022-09-25T22:00:01.999584","APOAPSIS":"541.172","TLE_LINE1":"1 52997U 22076M   22268.91668981 -.00064117  00000-0 -40450-2 0  9993","SEMIMAJOR_AXIS":"6917.840","BSTAR":"-0.00404500000000","COUNTRY_CODE":"US","DECAY_DATE":null,"RA_OF_ASC_NODE":"353.9509","CLASSIFICATION_TYPE":"U"},{"RA_OF_ASC_NODE":"353.9559","CLASSIFICATION_TYPE":"U","APOAPSIS":"540.720","TLE_LINE1":"1 52998U 22076N   22268.91668981 -.00041162  00000-0 -25824-2 0  9997","SEMIMAJOR_AXIS":"6917.854","BSTAR":"-0.00258240000000","DECAY_DATE":null,"COUNTRY_CODE":"US","ELEMENT_SET_NO":"999","MEAN_MOTION":"15.08848779","ECCENTRICITY":"0.00014470","EPOCH":"2022-09-25T22:00:01.999584","MEAN_ELEMENT_THEORY":"SGP4","OBJECT_NAME":"STARLINK-4254","REV_AT_EPOCH":"130","MEAN_ANOMALY":"159.3193","OBJECT_TYPE":"PAYLOAD","GP_ID":"213510032","TLE_LINE2":"2 52998  53.2190 353.9559 0001447  57.5677 159.3193 15.08848779  1309","MEAN_MOTION_DDOT":"0.0000000000000","RCS_SIZE":"LARGE","MEAN_MOTION_DOT":"-0.00041162","INCLINATION":"53.2190","TIME_SYSTEM":"UTC","PERIOD":"95.437","CENTER_NAME":"EARTH","SITE":"AFETR","OBJECT_ID":"2022-076N","LAUNCH_DATE":"2022-07-07","ARG_OF_PERICENTER":"57.5677","FILE":"3583828","NORAD_CAT_ID":"52998","REF_FRAME":"TEME","PERIAPSIS":"538.718","EPHEMERIS_TYPE":"0"},{"APOAPSIS":"540.729","SEMIMAJOR_AXIS":"6917.823","TLE_LINE1":"1 52999U 22076P   22268.91668981 -.00071203  00000-0 -44980-2 0  9991","BSTAR":"-0.00449800000000","COUNTRY_CODE":"US","DECAY_DATE":null,"RA_OF_ASC_NODE":"353.9386","CLASSIFICATION_TYPE":"U","MEAN_ELEMENT_THEORY":"SGP4","ELEMENT_SET_NO":"999","MEAN_MOTION":"15.08858675","ECCENTRICITY":"0.00015040","EPOCH":"2022-09-25T22:00:01.999584","MEAN_ANOMALY":"242.4605","OBJECT_TYPE":"PAYLOAD","OBJECT_NAME":"STARLINK-4217","REV_AT_EPOCH":"130","TLE_LINE2":"2 52999  53.2176 353.9386 0001504  59.6331 242.4605 15.08858675  1304","GP_ID":"213509065","MEAN_MOTION_DDOT":"0.0000000000000","MEAN_MOTION_DOT":"-0.00071203","INCLINATION":"53.2176","TIME_SYSTEM":"UTC","RCS_SIZE":"LARGE","CENTER_NAME":"EARTH","SITE":"AFETR","PERIOD":"95.436","FILE":"3583828","NORAD_CAT_ID":"52999","OBJECT_ID":"2022-076P","LAUNCH_DATE":"2022-07-07","ARG_OF_PERICENTER":"59.6331","EPHEMERIS_TYPE":"0","REF_FRAME":"TEME","PERIAPSIS":"538.648"},{"CENTER_NAME":"EARTH","SITE":"AFETR","PERIOD":"95.437","MEAN_MOTION_DOT":"-0.00065531","INCLINATION":"53.2188","TIME_SYSTEM":"UTC","RCS_SIZE":"LARGE","EPHEMERIS_TYPE":"0","PERIAPSIS":"538.329","REF_FRAME":"TEME","NORAD_CAT_ID":"53000","FILE":"3583828","OBJECT_ID":"2022-076Q","LAUNCH_DATE":"2022-07-07","ARG_OF_PERICENTER":"30.4549","MEAN_ELEMENT_THEORY":"SGP4","ELEMENT_SET_NO":"999","MEAN_MOTION":"15.08853998","EPOCH":"2022-09-25T22:00:01.999584","ECCENTRICITY":"0.00019860","APOAPSIS":"541.076","TLE_LINE1":"1 53000U 22076Q   22268.91668981 -.00065531  00000-0 -41354-2 0  9994","BSTAR":"-0.00413540000000","SEMIMAJOR_AXIS":"6917.838","COUNTRY_CODE":"US","DECAY_DATE":null,"RA_OF_ASC_NODE":"353.9545","CLASSIFICATION_TYPE":"U","TLE_LINE2":"2 53000  53.2188 353.9545 0001986  30.4549 191.6416 15.08853998  1308","GP_ID":"213509215","MEAN_MOTION_DDOT":"0.0000000000000","MEAN_ANOMALY":"191.6416","OBJECT_TYPE":"PAYLOAD","OBJECT_NAME":"STARLINK-4194","REV_AT_EPOCH":"130"},{"REF_FRAME":"TEME","PERIAPSIS":"538.705","EPHEMERIS_TYPE":"0","LAUNCH_DATE":"2022-07-07","OBJECT_ID":"2022-076R","ARG_OF_PERICENTER":"60.5429","NORAD_CAT_ID":"53001","FILE":"3583828","PERIOD":"95.438","SITE":"AFETR","CENTER_NAME":"EARTH","RCS_SIZE":"LARGE","TIME_SYSTEM":"UTC","MEAN_MOTION_DOT":"-0.00034007","INCLINATION":"53.2173","MEAN_MOTION_DDOT":"0.0000000000000","GP_ID":"213508904","TLE_LINE2":"2 53001  53.2173 353.9371 0001502  60.5429 261.5542 15.08840517  1305","REV_AT_EPOCH":"130","OBJECT_NAME":"STARLINK-4190","MEAN_ANOMALY":"261.5542","OBJECT_TYPE":"PAYLOAD","MEAN_MOTION":"15.08840517","EPOCH":"2022-09-25T22:00:01.999584","ECCENTRICITY":"0.00015020","ELEMENT_SET_NO":"999","MEAN_ELEMENT_THEORY":"SGP4","CLASSIFICATION_TYPE":"U","RA_OF_ASC_NODE":"353.9371","DECAY_DATE":null,"COUNTRY_CODE":"US","APOAPSIS":"540.783","BSTAR":"-0.00212870000000","TLE_LINE1":"1 53001U 22076R   22268.91668981 -.00034007  00000-0 -21287-2 0  9992","SEMIMAJOR_AXIS":"6917.879"},{"MEAN_MOTION_DDOT":"0.0000000000000","GP_ID":"213509793","TLE_LINE2":"2 53002  53.2184 353.9522 0001907  34.3634 207.7161 15.08857121  1300","REV_AT_EPOCH":"130","OBJECT_NAME":"STARLINK-4121","MEAN_ANOMALY":"207.7161","OBJECT_TYPE":"PAYLOAD","MEAN_MOTION":"15.08857121","EPOCH":"2022-09-25T22:00:01.999584","ECCENTRICITY":"0.00019070","ELEMENT_SET_NO":"999","MEAN_ELEMENT_THEORY":"SGP4","CLASSIFICATION_TYPE":"U","RA_OF_ASC_NODE":"353.9522","COUNTRY_CODE":"US","DECAY_DATE":null,"APOAPSIS":"541.012","TLE_LINE1":"1 53002U 22076S   22268.91668981 -.00070641  00000-0 -44621-2 0  9994","BSTAR":"-0.00446210000000","SEMIMAJOR_AXIS":"6917.828","PERIAPSIS":"538.374","REF_FRAME":"TEME","EPHEMERIS_TYPE":"0","OBJECT_ID":"2022-076S","LAUNCH_DATE":"2022-07-07","ARG_OF_PERICENTER":"34.3634","FILE":"3583828","NORAD_CAT_ID":"53002","PERIOD":"95.436","SITE":"AFETR","CENTER_NAME":"EARTH","RCS_SIZE":"LARGE","TIME_SYSTEM":"UTC","MEAN_MOTION_DOT":"-0.00070641","INCLINATION":"53.2184"},{"EPHEMERIS_TYPE":"0","REF_FRAME":"TEME","PERIAPSIS":"538.689","NORAD_CAT_ID":"53003","FILE":"3583460","ARG_OF_PERICENTER":"62.8470","LAUNCH_DATE":"2022-07-07","OBJECT_ID":"2022-076T","SITE":"AFETR","CENTER_NAME":"EARTH","PERIOD":"95.436","TIME_SYSTEM":"UTC","INCLINATION":"53.2173","MEAN_MOTION_DOT":"-0.00065005","RCS_SIZE":"LARGE","MEAN_MOTION_DDOT":"0.0000000000000","GP_ID":"213475844","TLE_LINE2":"2 53003  53.2173 353.9344 0001435  62.8470 299.2371 15.08860727 12982","OBJECT_TYPE":"PAYLOAD","MEAN_ANOMALY":"299.2371","OBJECT_NAME":"STARLINK-4255","REV_AT_EPOCH":"1298","MEAN_ELEMENT_THEORY":"SGP4","ECCENTRICITY":"0.00014350","EPOCH":"2022-09-25T22:00:01.999584","MEAN_MOTION":"15.08860727","ELEMENT_SET_NO":"999","DECAY_DATE":null,"COUNTRY_CODE":"US","BSTAR":"-0.00410110000000","TLE_LINE1":"1 53003U 22076T   22268.91668981 -.00065005  00000-0 -41011-2 0  9993","SEMIMAJOR_AXIS":"6917.817","APOAPSIS":"540.675","CLASSIFICATION_TYPE":"U","RA_OF_ASC_NODE":"353.9344"},{"PERIOD":"95.436","SITE":"AFETR","CENTER_NAME":"EARTH","RCS_SIZE":"LARGE","TIME_SYSTEM":"UTC","MEAN_MOTION_DOT":"-0.00079317","INCLINATION":"53.2177","PERIAPSIS":"538.654","REF_FRAME":"TEME","EPHEMERIS_TYPE":"0","OBJECT_ID":"2022-076U","LAUNCH_DATE":"2022-07-07","ARG_OF_PERICENTER":"62.4236","NORAD_CAT_ID":"53004","FILE":"3583828","MEAN_MOTION":"15.08861949","ECCENTRICITY":"0.00014810","EPOCH":"2022-09-25T22:00:01.999584","ELEMENT_SET_NO":"999","MEAN_ELEMENT_THEORY":"SGP4","CLASSIFICATION_TYPE":"U","RA_OF_ASC_NODE":"353.9436","DECAY_DATE":null,"COUNTRY_CODE":"US","APOAPSIS":"540.703","SEMIMAJOR_AXIS":"6917.813","TLE_LINE1":"1 53004U 22076U   22268.91668981 -.00079317  00000-0 -50179-2 0  9990","BSTAR":"-0.00501790000000","MEAN_MOTION_DDOT":"0.0000000000000","GP_ID":"213509631","TLE_LINE2":"2 53004  53.2177 353.9436 0001481  62.4236 219.6472 15.08861949  1305","REV_AT_EPOCH":"130","OBJECT_NAME":"STARLINK-4253","MEAN_ANOMALY":"219.6472","OBJECT_TYPE":"PAYLOAD"},{"LAUNCH_DATE":"2022-07-07","OBJECT_ID":"2022-076V","ARG_OF_PERICENTER":"55.6198","FILE":"3583828","NORAD_CAT_ID":"53005","REF_FRAME":"TEME","PERIAPSIS":"538.580","EPHEMERIS_TYPE":"0","RCS_SIZE":"LARGE","TIME_SYSTEM":"UTC","MEAN_MOTION_DOT":"-0.00076255","INCLINATION":"53.2176","PERIOD":"95.436","SITE":"AFETR","CENTER_NAME":"EARTH","REV_AT_EPOCH":"130","OBJECT_NAME":"STARLINK-4288","MEAN_ANOMALY":"326.4471","OBJECT_TYPE":"PAYLOAD","MEAN_MOTION_DDOT":"0.0000000000000","GP_ID":"213509321","TLE_LINE2":"2 53005  53.2176 353.9356 0001594  55.6198 326.4471 15.08860608  1309","CLASSIFICATION_TYPE":"U","RA_OF_ASC_NODE":"353.9356","COUNTRY_CODE":"US","DECAY_DATE":null,"APOAPSIS":"540.785","SEMIMAJOR_AXIS":"6917.817","TLE_LINE1":"1 53005U 22076V   22268.91668981 -.00076255  00000-0 -48216-2 0  9998","BSTAR":"-0.00482160000000","MEAN_MOTION":"15.08860608","ECCENTRICITY":"0.00015940","EPOCH":"2022-09-25T22:00:01.999584","ELEMENT_SET_NO":"999","MEAN_ELEMENT_THEORY":"SGP4"},{"SITE":"AFETR","CENTER_NAME":"EARTH","PERIOD":"95.436","TIME_SYSTEM":"UTC","MEAN_MOTION_DOT":"-0.00071417","INCLINATION":"53.2176","RCS_SIZE":"LARGE","EPHEMERIS_TYPE":"0","PERIAPSIS":"538.612","REF_FRAME":"TEME","NORAD_CAT_ID":"53006","FILE":"3583828","LAUNCH_DATE":"2022-07-07","OBJECT_ID":"2022-076W","ARG_OF_PERICENTER":"47.8431","MEAN_ELEMENT_THEORY":"SGP4","MEAN_MOTION":"15.08856986","ECCENTRICITY":"0.00015640","EPOCH":"2022-09-25T22:00:01.999584","ELEMENT_SET_NO":"999","COUNTRY_CODE":"US","DECAY_DATE":null,"APOAPSIS":"540.775","TLE_LINE1":"1 53006U 22076W   22268.91668981 -.00071417  00000-0 -45119-2 0  9993","BSTAR":"-0.00451190000000","SEMIMAJOR_AXIS":"6917.828","CLASSIFICATION_TYPE":"U","RA_OF_ASC_NODE":"353.9362","MEAN_MOTION_DDOT":"0.0000000000000","TLE_LINE2":"2 53006  53.2176 353.9362 0001564  47.8431 294.2410 15.08856986  1306","GP_ID":"213510033","MEAN_ANOMALY":"294.2410","OBJECT_TYPE":"PAYLOAD","OBJECT_NAME":"STARLINK-4290","REV_AT_EPOCH":"130"}];
